[
    {
        "CCSDS_OMM_VERS": "3.0",
        "COMMENT": "GENERATED VIA SPACE-TRACK.ORG API",
        "CREATION_DATE": "2025-04-14T03:05:54",
        "ORIGINATOR": "18 SPCS",
        "OBJECT_NAME": "COSMOS 2545 (GLONASS)",
        "OBJECT_ID": "2020-018A",
        "CENTER_NAME": "EARTH",
        "REF_FRAME": "TEME",
        "TIME_SYSTEM": "UTC",
        "MEAN_ELEMENT_THEORY": "SGP4",
        "EPOCH": "2025-04-12T21:55:13.560960",
        "MEAN_MOTION": "2.13102649",
        "ECCENTRICITY": "0.00072550",
        "INCLINATION": "64.6031",
        "RA_OF_ASC_NODE": "327.5047",
        "ARG_OF_PERICENTER": "248.4081",
        "MEAN_ANOMALY": "111.5699",
        "EPHEMERIS_TYPE": "0",
        "CLASSIFICATION_TYPE": "U",
        "NORAD_CAT_ID": "45358",
        "ELEMENT_SET_NO": "999",
        "REV_AT_EPOCH": "3949",
        "BSTAR": "0.00000000000000",
        "MEAN_MOTION_DOT": "-0.00000048",
        "MEAN_MOTION_DDOT": "0.0000000000000",
        "SEMIMAJOR_AXIS": "25507.973",
        "PERIOD": "675.731",
        "APOAPSIS": "19148.344",
        "PERIAPSIS": "19111.332",
        "OBJECT_TYPE": "PAYLOAD",
        "RCS_SIZE": "LARGE",
        "COUNTRY_CODE": "CIS",
        "LAUNCH_DATE": "2020-03-16",
        "SITE": "PKMTR",
        "DECAY_DATE": null,
        "FILE": "4701263",
        "GP_ID": "285539932",
        "TLE_LINE0": "0 COSMOS 2545 (GLONASS)",
        "TLE_LINE1": "1 45358U 20018A   25102.91335140 -.00000048  00000-0  00000-0 0  9995",
        "TLE_LINE2": "2 45358  64.6031 327.5047 0007255 248.4081 111.5699  2.13102649 39496"
    }
]